[{"OBJECT_NAME":"STARLINK-3174","OBJECT_ID":"2022-010N","EPOCH":"2026-03-09T22:37:41.818368","MEAN_MOTION":15.08835058,"ECCENTRICITY":0.0001259,"INCLINATION":53.2172,"RA_OF_ASC_NODE":277.9482,"ARG_OF_PERICENTER":88.5621,"MEAN_ANOMALY":271.5515,"EPHEMERIS_TYPE":0,"CLASSIFICATION_TYPE":"U","NORAD_CAT_ID":51468,"ELEMENT_SET_NO":999,"REV_AT_EPOCH":22655,"BSTAR":-1.8452855e-5,"MEAN_MOTION_DOT":-5.81e-6,"MEAN_MOTION_DDOT":0},{"OBJECT_NAME":"USA 18","OBJECT_ID":"1986-014H","EPOCH":"2026-03-09T22:05:59.515872","MEAN_MOTION":13.90362984,"ECCENTRICITY":0.07661046,"INCLINATION":63.2943,"RA_OF_ASC_NODE":308.76,"ARG_OF_PERICENTER":110.5722,"MEAN_ANOMALY":257.9185,"EPHEMERIS_TYPE":0,"CLASSIFICATION_TYPE":"U","NORAD_CAT_ID":16631,"ELEMENT_SET_NO":999,"REV_AT_EPOCH":33054,"BSTAR":0.00071829243,"MEAN_MOTION_DOT":0.00012022,"MEAN_MOTION_DDOT":0}]
